CRE (WAAS/PRN 138)      
1 28868U 05036A   25008.20000851 -.00000064  00000+0  00000+0 0  9996
2 28868   2.9627  83.1490 0001787 233.2169 116.3427  1.00271128 70894
IOR-W (EGNOS/PRN 126)   
1 28899U 05044A   25007.47479851 -.00000250  00000+0  00000+0 0  9994
2 28899   4.4221  43.1307 0003016 238.9330 139.6404  1.00273613 70239
GSAT-8 (GAGAN/PRN 127)  
1 37605U 11022A   25008.21229896  .00000097  00000+0  00000+0 0  9995
2 37605   0.7704  88.6586 0009007 186.5005 324.3565  1.00273040 49977
LUCH 5A (SDCM/PRN 140)  
1 37951U 11074B   25007.52613512 -.00000041  00000+0  00000+0 0  9991
2 37951   7.4096  81.7609 0004291 183.7651 198.1172  1.00273241 47786
SES-5 (EGNOS/PRN 136)   
1 38652U 12036A   25007.74947687  .00000047  00000+0  00000+0 0  9991
2 38652   0.0541 303.9586 0001931 336.6533 101.7246  1.00271284 39203
GSAT-10 (GAGAN/PRN 128) 
1 38779U 12051B   25007.10813567 -.00000151  00000+0  00000+0 0  9994
2 38779   0.0545 255.0845 0001985 208.9221 124.8760  1.00269799 44825
LUCH 5B (SDCM/PRN 125)  
1 38977U 12061A   25007.37911698 -.00000130  00000+0  00000+0 0  9995
2 38977   9.3373  54.8883 0005447 191.0002 341.4362  1.00270940 44330
ASTRA 5B (EGNOS/PRN 123)
1 39617U 14011B   25007.85438609  .00000150  00000+0  00000+0 0  9994
2 39617   0.0406   2.5207 0004652 285.0969 151.0901  1.00269933 39406
LUCH 5V (SDCM/PRN 141)  
1 39727U 14023A   25007.85228896 -.00000258  00000+0  00000+0 0  9994
2 39727   3.8157  74.5389 0004304 222.3611 212.3050  1.00269651 39092
GSAT-15 (GAGAN/PRN 139) 
1 41028U 15065A   25008.12965951 -.00000245  00000+0  00000+0 0  9995
2 41028   0.0121 311.6209 0002139 317.7490 338.7182  1.00271542 33593
E 117 W B (WAAS/PRN 131)
1 41589U 16038B   25008.33963399  .00000001  00000+0  00000+0 0  9994
2 41589   0.0078 167.3936 0000304 210.3728  95.6316  1.00272326 31444
SES-15 (WAAS/PRN 133)   
1 42709U 17026A   25006.52341199  .00000074  00000+0  00000+0 0  9994
2 42709   0.0171  16.5788 0000419 258.2972 250.7255  1.00268448 28905
QZS-2 (QZSS/PRN 194)    
1 42738U 17028A   25008.45299021 -.00000111  00000+0  00000+0 0  9991
2 42738  40.2438 250.7953 0753667 269.7438 252.6031  1.00277652 27863
QZS-3 (QZSS/PRN 199)    
1 42917U 17048A   25007.83369819 -.00000335  00000+0  00000+0 0  9994
2 42917   0.0579 202.0059 0002405  88.8973 243.8638  1.00267661 26997
QZS-4 (QZSS/PRN 195)    
1 42965U 17062A   24362.55006255 -.00000326  00000+0  00000+0 0  9997
2 42965  40.4220 350.3323 0751752 271.9012 167.8126  1.00248203 26423
BEIDOU-3 G1 (PRN 130)   
1 43683U 18085A   25007.75798416 -.00000267  00000+0  00000+0 0  9991
2 43683   2.7009 102.5692 0001301  72.4798 345.3815  1.00274404 22792
BEIDOU-3 G2 (PRN 144)   
1 45344U 20017A   25007.76442030 -.00000129  00000+0  00000+0 0  9991
2 45344   2.6043  36.5311 0004401 236.6901 189.5205  1.00269781 17992
BEIDOU-3 G3 (PRN 143)   
1 45807U 20040A   25008.14475443 -.00000342  00000+0  00000+0 0  9995
2 45807   1.1907  58.8442 0003223 303.6277 268.0314  1.00276457 16815
GALAXY 30 (WAAS/PRN 135)
1 46114U 20056C   25007.68522698  .00000050  00000+0  00000+0 0  9992
2 46114   0.0191  45.0416 0002226 243.9449 300.1661  1.00271442 16023
QZS-1R (QZSS/PRN 196)   
1 49336U 21096A   25007.58730313 -.00000275  00000+0  00000+0 0  9990
2 49336  36.3692  87.4412 0757408 271.7765  93.3338  1.00252151 11736
